MOZHAETS 4 (RS-22)      
1 27939U 03042A   25356.30009351  .00000921  00000+0  15159-3 0  9996
2 27939  98.3360 170.7540 0012407 107.4951  16.5879 14.72993664189506
IRS-P6 (RESOURCESAT-1)  
1 28051U 03046A   25356.27387726  .00000104  00000+0  48513-4 0  9991
2 28051  98.2165  36.2389 0064751 152.1800 339.6678 14.36078499155138
SAUDISAT 2              
1 28371U 04025F   25356.21481050  .00000309  00000+0  80089-4 0  9994
2 28371  98.5427 346.7203 0025813 119.0486 241.3302 14.56530174139982
COSMOS 2407             
1 28380U 04028A   25356.12987251  .00000061  00000+0  46818-4 0  9998
2 28380  82.9597 205.9402 0039895  29.2204  88.6556 13.76314712 75520
COSMOS 2414             
1 28521U 05002A   25356.26363670  .00000077  00000+0  50484-4 0  9997
2 28521  82.9488 177.4580 0041337 113.2391 247.3133 13.87904273 59279
INMARSAT 4-F1           
1 28628U 05009A   25356.23532106  .00000052  00000+0  00000+0 0  9998
2 28628   4.9288  42.6178 0002400 235.1821  76.0777  1.00271511 75896
HAMSAT (VO-52)          
1 28650U 05017B   25355.98709225  .00006226  00000+0  41075-3 0  9991
2 28650  98.0015   6.6740 0018704 277.6675  82.2427 15.07706667120046
NOAA 18                 
1 28654U 05018A   25356.18374606  .00000142  00000+0  98346-4 0  9995
2 28654  98.8284  73.3253 0013274 295.5144  64.4655 14.13685625 61307
SJ-7                    
1 28737U 05024A   25356.07877470  .00009484  00000+0  46395-3 0  9993
2 28737  97.7466  16.6313 0015328 288.7117  71.2452 15.18330566121127
CUBESAT XI-V            
1 28895U 05043F   25355.34693506  .00001364  00000+0  22568-3 0  9999
2 28895  98.2730 142.5706 0015111  52.6082 307.6498 14.71929307 75585
CLOUDSAT                
1 29107U 06016A   25356.21361584  .00001165  00000+0  14057-3 0  9995
2 29107  98.4125  18.5509 0005334 171.3460 188.7847 14.85906807 48222
CALIPSO                 
1 29108U 06016B   25355.53706484  .00001012  00000+0  18212-3 0  9990
2 29108  98.4518   0.1473 0001655  96.0486 264.0906 14.68864568 46971
HINODE (SOLAR-B)        
1 29479U 06041A   25356.29831806  .00000672  00000+0  12462-3 0  9992
2 29479  98.0643  10.0039 0018577 126.8572 233.4340 14.68317223 28911
METOP-A                 
1 29499U 06044A   25356.27446800  .00002052  00000+0  24559-3 0  9995
2 29499  98.3298  92.6399 0175130 273.2569 143.4223 14.75062583999369
SHIJIAN-6 02B (SJ-6 02B)
1 29506U 06046B   25356.22364897  .00001791  00000+0  14648-3 0  9993
2 29506  97.6887  21.7034 0013166 306.4712  53.5298 15.00570227 44195
DMSP 5D-3 F17 (USA 191) 
1 29522U 06050A   25356.24642877  .00000144  00000+0  96638-4 0  9996
2 29522  98.7391   1.4376 0009811 196.3171 163.7688 14.14923667987395
LAPAN-TUBSAT            
1 29709U 07001A   25356.20935213  .00001230  00000+0  14824-3 0  9998
2 29709  98.1254 346.5605 0013363  46.2956 313.9363 14.85685795 24872
HAIYANG-1B              
1 31113U 07010A   25356.24375027  .00000097  00000+0  52819-4 0  9992
2 31113  98.3325 340.1296 0013764  10.8890 349.2589 14.30968097975326
BEIDOU-2 M1             
1 31115U 07011A   25352.95248925  .00000058  00000+0  00000+0 0  9992
2 31115  50.9932 225.2699 0002902  25.7282 334.3901  1.77349428 72956
CAPE-1                  
1 31130U 07012P   25356.15716181  .00001589  00000+0  29684-3 0  9993
2 31130  98.4251 321.2111 0083046 263.8066  95.3670 14.64254262992435
CBERS 2B                
1 32062U 07042A   25356.31108797  .00000228  00000+0  83302-4 0  9994
2 32062  98.3733 299.2644 0031683 145.4911 334.0349 14.41347504959204
COSMO-SKYMED 2          
1 32376U 07059A   25356.28353807  .00000521  00000+0  71943-4 0  9994
2 32376  97.8804 177.4637 0001328  82.7901 277.3463 14.82153929975798
CARTOSAT-2A             
1 32783U 08021A   25356.27796509 -.00000519  00000+0 -63457-4 0  9995
2 32783  97.7918  45.8034 0011152 333.3477  26.7160 14.78946816952653
CUTE-1.7+APD II (CO-65) 
1 32785U 08021C   25351.68477250  .00005656  00000+0  38073-3 0  9996
2 32785  97.8081 324.8433 0007829 290.5969  69.4418 15.07103756957832
SEEDS II (CO-66)        
1 32791U 08021J   25355.69369991  .00014590  00000+0  57789-3 0  9992
2 32791  97.7451 341.1485 0002427 167.5699 192.5598 15.25528377960167
YUBILEINY (RS-30)       
1 32953U 08025A   25356.28752225  .00000049  00000+0  28104-3 0  9991
2 32953  82.5034 105.4855 0018684 339.8802  20.1539 12.43172235797715
FENGYUN 3A              
1 32958U 08026A   25356.27167683  .00000087  00000+0  62015-4 0  9996
2 32958  98.6711 295.5982 0007649 279.5774  80.4537 14.19517391910309
HUANJING 1A (HJ-1A)     
1 33320U 08041A   25356.27454133  .00001806  00000+0  22555-3 0  9990
2 33320  97.6540 344.1749 0019436   4.3363 355.8016 14.83423570932175
HUANJING 1B (HJ-1B)     
1 33321U 08041B   25356.23685321  .00000900  00000+0  11607-3 0  9992
2 33321  97.6398 347.8109 0037960  45.6711 314.7604 14.82844059932180
SHIJIAN-6 03A (SJ-6 03A)
1 33408U 08053A   25356.23750410  .00006044  00000+0  32848-3 0  9998
2 33408  97.8601  18.4913 0010260 259.9917 100.0157 15.14850181936150
SHIJIAN-6 03B (SJ-6 03B)
1 33409U 08053B   25356.31626190  .00002186  00000+0  16493-3 0  9996
2 33409  97.8678   8.2765 0018697 278.3434  81.5671 15.03407871936165
CHUANGXIN 1-02 (CX-1-02)
1 33434U 08056B   25356.28983170  .00000016  00000+0  23150-4 0  9996
2 33434  98.6311  19.1683 0013345 302.6207  57.3687 14.30105531893336
STARS (KUKAI)           
1 33498U 09002G   25356.05157397  .00005317  00000+0  50419-3 0  9993
2 33498  98.1398 291.5493 0010032  42.7444 317.4553 14.93984883912019
KKS-1 (KISEKI)          
1 33499U 09002H   25356.19163016  .00001603  00000+0  20656-3 0  9998
2 33499  98.1185 270.9261 0008767 135.8817 224.3096 14.82466098909967
NOAA 19                 
1 33591U 09005A   25356.22216377  .00000058  00000+0  54952-4 0  9997
2 33591  98.9754  61.8041 0014058 167.3274 192.8254 14.13438211869487
UK-DMC 2                
1 35683U 09041C   25356.27243303  .00000602  00000+0  95345-4 0  9991
2 35683  97.8568 130.9061 0001521  93.4878 266.6506 14.75639207880470
METEOR-M 1              
1 35865U 09049A   25356.18239985  .00000094  00000+0  61322-4 0  9995
2 35865  98.7149 315.1767 0003296  96.8814 263.2740 14.23099200844070
OCEANSAT-2              
1 35931U 09051A   25356.26991133 -.00000085  00000+0 -32599-4 0  9997
2 35931  98.2217 355.9035 0015975  20.0595 340.1196 13.99622969854580
SWISSCUBE               
1 35932U 09051B   25356.14730803  .00001228  00000+0  25490-3 0  9999
2 35932  98.4147 255.8968 0007900  49.2824 310.9061 14.61983211863288
BEESAT-1                
1 35933U 09051C   25356.27399880  .00001068  00000+0  22612-3 0  9995
2 35933  98.4077 256.0189 0006482  62.0290 298.1566 14.61300167863340
ITUPSAT1                
1 35935U 09051E   25356.18020033  .00000964  00000+0  21062-3 0  9990
2 35935  98.4168 255.2936 0008747  69.8575 290.3565 14.60053242862903
DMSP 5D-3 F18 (USA 210) 
1 35951U 09057A   25356.20275861  .00000285  00000+0  17109-3 0  9991
2 35951  98.8845 332.5566 0011803  37.7781 322.4218 14.14775365834564
PROBA-2                 
1 36037U 09059B   25355.51669850  .00000254  00000+0  69737-4 0  9998
2 36037  98.2372 176.3693 0014298 108.1283 252.1472 14.54718009855699
YAOGAN-7                
1 36110U 09069A   25356.17619737  .00000580  00000+0  87982-4 0  9997
2 36110  98.0296 237.8993 0023388 249.0784 110.7922 14.77745547863488
XIWANG-1 (HOPE-1)       
1 36122U 09072B   25356.24157715  .00000033  00000+0  20115-3 0  9992
2 36122 100.3788 308.1036 0006938 280.0409  79.9921 13.16432398769721
RADUGA-1M 2             
1 36358U 10002A   25356.20376929  .00000099  00000+0  00000+0 0  9993
2 36358   3.1584  81.1041 0007898 229.1633 274.1329  0.98964649 48275
COSMOS 2463             
1 36519U 10017A   25356.06969767  .00000051  00000+0  39924-4 0  9990
2 36519  82.9604  19.8561 0034761 261.2168 116.0980 13.71649945783655
CARTOSAT-2B             
1 36795U 10035A   25356.31895172  .00001062  00000+0  15132-3 0  9999
2 36795  97.7841  45.0379 0012738  48.4798 311.7504 14.78739294833714
AISSAT 1                
1 36797U 10035C   25355.93699194  .00002108  00000+0  19182-3 0  9995
2 36797  98.1104 243.8503 0007909 289.7487  70.2880 14.96339400837701
TISAT 1                 
1 36799U 10035E   25355.77480121  .00015376  00000+0  64195-3 0  9992
2 36799  98.0613 282.8307 0004144 114.9041 245.2626 15.23749147840615
YAOGAN-10               
1 36834U 10038A   25356.28997485  .00001145  00000+0  14184-3 0  9990
2 36834  97.9129  16.0388 0001336  77.5595  51.1244 14.84638432830955
SHIJIAN-6 04B (SJ-6 04B)
1 37180U 10051B   25356.27609208  .00001294  00000+0  11224-3 0  9999
2 37180  97.8663 354.9225 0011079 174.9560 185.1776 14.98845621829170
FENGYUN 3B              
1 37214U 10059A   25356.29327611 -.00000069  00000+0 -11926-4 0  9993
2 37214  98.9894  36.3371 0021604 330.5824  95.6698 14.14791659782419
COSMO-SKYMED 4          
1 37216U 10060A   25356.29620144  .00000051  00000+0  12948-4 0  9998
2 37216  97.8800 177.4751 0001430  81.8856 278.2519 14.82154513818363
O/OREOS (USA 219)       
1 37224U 10062C   25355.74079110  .00002292  00000+0  22760-3 0  9990
2 37224  71.9708 122.0058 0013597  37.6850 322.5270 14.92722088 90153
ELEKTRO-L 1 (GOMS 2)    
1 37344U 11001A   25356.03971727 -.00000270  00000+0  00000+0 0  9999
2 37344   9.2829  56.2919 0002337  29.5735 331.3570  1.00202386 54712
RESOURCESAT-2           
1 37387U 11015A   25356.28734375  .00000136  00000+0  82083-4 0  9990
2 37387  98.7863  59.7958 0005973  16.7021 343.4352 14.21600882761049
YOUTHSAT                
1 37388U 11015B   25356.20562925  .00000214  00000+0  10794-3 0  9999
2 37388  98.3478 333.4609 0015210 138.1713 232.8321 14.25525628762423
APRIZESAT 6             
1 37793U 11044F   25356.24506962  .00000982  00000+0  14683-3 0  9997
2 37793  98.2461 258.0709 0042220 292.8667 183.2973 14.76556625771030
